{
  "type": "FeatureCollection",
  "features": [
    {
      "type": "Feature",
      "properties": {
        "norad_id": 66945,
        "name": "STARLINK-36110",
        "group": "last-30-days",
        "lat": 38.053886342145795,
        "lon": 74.22159692466735,
        "alt_km": 288.5044984353017,
        "timestamp": "2025-12-15T04:01:19.182650+00:00",
        "meta_object_name": "STARLINK-36110",
        "meta_object_id": "2025-286W",
        "meta_epoch": "2025-12-14T06:00:02.999808",
        "meta_mean_motion": 15.95317332,
        "meta_eccentricity": 9.424e-05,
        "meta_inclination": 53.1568,
        "meta_ra_of_asc_node": 42.9699,
        "meta_arg_of_pericenter": 75.9427,
        "meta_mean_anomaly": 105.7506,
        "meta_ephemeris_type": 0,
        "meta_classification_type": "U",
        "meta_norad_cat_id": 66945,
        "meta_element_set_no": 999,
        "meta_rev_at_epoch": 223,
        "meta_bstar": -0.0033577574,
        "meta_mean_motion_dot": -0.01356574,
        "meta_mean_motion_ddot": 0.00055039083,
        "tle_line1": "1 66945U 25286W   25348.25003472 -.01356574  55039-3 -33578-2 0  9994",
        "tle_line2": "2 66945  53.1568  42.9699 0000942  75.9427 105.7506 15.95317332  2238"
      },
      "geometry": {
        "type": "Point",
        "coordinates": [
          74.22159692466735,
          38.053886342145795
        ]
      }
    },
    {
      "type": "Feature",
      "properties": {
        "norad_id": 66946,
        "name": "STARLINK-36115",
        "group": "last-30-days",
        "lat": 39.21609418191832,
        "lon": 76.00238708067963,
        "alt_km": 288.1328828159567,
        "timestamp": "2025-12-15T04:01:19.182660+00:00",
        "meta_object_name": "STARLINK-36115",
        "meta_object_id": "2025-286X",
        "meta_epoch": "2025-12-14T06:00:02.999808",
        "meta_mean_motion": 15.95388459,
        "meta_eccentricity": 9.254e-05,
        "meta_inclination": 53.1568,
        "meta_ra_of_asc_node": 42.9665,
        "meta_arg_of_pericenter": 76.9836,
        "meta_mean_anomaly": 106.2898,
        "meta_ephemeris_type": 0,
        "meta_classification_type": "U",
        "meta_norad_cat_id": 66946,
        "meta_element_set_no": 999,
        "meta_rev_at_epoch": 223,
        "meta_bstar": -0.0033477918,
        "meta_mean_motion_dot": -0.01357734,
        "meta_mean_motion_ddot": 0.00055164689,
        "tle_line1": "1 66946U 25286X   25348.25003472 -.01357734  55165-3 -33478-2 0  9993",
        "tle_line2": "2 66946  53.1568  42.9665 0000925  76.9836 106.2898 15.95388459  2236"
      },
      "geometry": {
        "type": "Point",
        "coordinates": [
          76.00238708067963,
          39.21609418191832
        ]
      }
    },
    {
      "type": "Feature",
      "properties": {
        "norad_id": 66947,
        "name": "STARLINK-36089",
        "group": "last-30-days",
        "lat": 41.59982945326349,
        "lon": 80.0059763685918,
        "alt_km": 287.3315488726512,
        "timestamp": "2025-12-15T04:01:19.182670+00:00",
        "meta_object_name": "STARLINK-36089",
        "meta_object_id": "2025-286Y",
        "meta_epoch": "2025-12-14T06:00:02.999808",
        "meta_mean_motion": 15.95548656,
        "meta_eccentricity": 9.566e-05,
        "meta_inclination": 53.1567,
        "meta_ra_of_asc_node": 42.9597,
        "meta_arg_of_pericenter": 78.6263,
        "meta_mean_anomaly": 108.0175,
        "meta_ephemeris_type": 0,
        "meta_classification_type": "U",
        "meta_norad_cat_id": 66947,
        "meta_element_set_no": 999,
        "meta_rev_at_epoch": 223,
        "meta_bstar": -0.0033471588,
        "meta_mean_motion_dot": -0.01369144,
        "meta_mean_motion_ddot": 0.00056104536,
        "tle_line1": "1 66947U 25286Y   25348.25003472 -.01369144  56105-3 -33472-2 0  9991",
        "tle_line2": "2 66947  53.1567  42.9597 0000956  78.6263 108.0175 15.95548656  2232"
      },
      "geometry": {
        "type": "Point",
        "coordinates": [
          80.0059763685918,
          41.59982945326349
        ]
      }
    },
    {
      "type": "Feature",
      "properties": {
        "norad_id": 66948,
        "name": "STARLINK-36116",
        "group": "last-30-days",
        "lat": 40.59442051820745,
        "lon": 78.25370105223683,
        "alt_km": 287.7204438297631,
        "timestamp": "2025-12-15T04:01:19.182682+00:00",
        "meta_object_name": "STARLINK-36116",
        "meta_object_id": "2025-286Z",
        "meta_epoch": "2025-12-14T06:00:02.999808",
        "meta_mean_motion": 15.95477322,
        "meta_eccentricity": 8.582e-05,
        "meta_inclination": 53.1568,
        "meta_ra_of_asc_node": 42.9626,
        "meta_arg_of_pericenter": 79.7903,
        "meta_mean_anomaly": 105.4017,
        "meta_ephemeris_type": 0,
        "meta_classification_type": "U",
        "meta_norad_cat_id": 66948,
        "meta_element_set_no": 999,
        "meta_rev_at_epoch": 223,
        "meta_bstar": -0.0033352335,
        "meta_mean_motion_dot": -0.01359125,
        "meta_mean_motion_ddot": 0.00055317673,
        "tle_line1": "1 66948U 25286Z   25348.25003472 -.01359125  55318-3 -33352-2 0  9992",
        "tle_line2": "2 66948  53.1568  42.9626 0000858  79.7903 105.4017 15.95477322  2238"
      },
      "geometry": {
        "type": "Point",
        "coordinates": [
          78.25370105223683,
          40.59442051820745
        ]
      }
    },
    {
      "type": "Feature",
      "properties": {
        "norad_id": 66949,
        "name": "STARLINK-36096",
        "group": "last-30-days",
        "lat": 42.60017463773979,
        "lon": 81.85540909522963,
        "alt_km": 287.0285898343227,
        "timestamp": "2025-12-15T04:01:19.182692+00:00",
        "meta_object_name": "STARLINK-36096",
        "meta_object_id": "2025-286AA",
        "meta_epoch": "2025-12-14T06:00:02.999808",
        "meta_mean_motion": 15.95617517,
        "meta_eccentricity": 9.244e-05,
        "meta_inclination": 53.1568,
        "meta_ra_of_asc_node": 42.9566,
        "meta_arg_of_pericenter": 77.5159,
        "meta_mean_anomaly": 110.6217,
        "meta_ephemeris_type": 0,
        "meta_classification_type": "U",
        "meta_norad_cat_id": 66949,
        "meta_element_set_no": 999,
        "meta_rev_at_epoch": 223,
        "meta_bstar": -0.0033561222,
        "meta_mean_motion_dot": -0.01377823,
        "meta_mean_motion_ddot": 0.00056794958,
        "tle_line1": "1 66949U 25286AA  25348.25003472 -.01377823  56795-3 -33561-2 0  9990",
        "tle_line2": "2 66949  53.1568  42.9566 0000924  77.5159 110.6217 15.95617517  2237"
      },
      "geometry": {
        "type": "Point",
        "coordinates": [
          81.85540909522963,
          42.60017463773979
        ]
      }
    },
    {
      "type": "Feature",
      "properties": {
        "norad_id": 66950,
        "name": "STARLINK-36111",
        "group": "last-30-days",
        "lat": 44.610868889304484,
        "lon": 85.96383082502322,
        "alt_km": 286.32101925083407,
        "timestamp": "2025-12-15T04:01:19.182704+00:00",
        "meta_object_name": "STARLINK-36111",
        "meta_object_id": "2025-286AB",
        "meta_epoch": "2025-12-14T06:00:02.999808",
        "meta_mean_motion": 15.95770213,
        "meta_eccentricity": 9.546e-05,
        "meta_inclination": 53.1568,
        "meta_ra_of_asc_node": 42.9502,
        "meta_arg_of_pericenter": 80.3643,
        "meta_mean_anomaly": 110.8873,
        "meta_ephemeris_type": 0,
        "meta_classification_type": "U",
        "meta_norad_cat_id": 66950,
        "meta_element_set_no": 999,
        "meta_rev_at_epoch": 223,
        "meta_bstar": -0.003354515,
        "meta_mean_motion_dot": -0.01388478,
        "meta_mean_motion_ddot": 0.00057688783,
        "tle_line1": "1 66950U 25286AB  25348.25003472 -.01388478  57689-3 -33545-2 0  9995",
        "tle_line2": "2 66950  53.1568  42.9502 0000954  80.3643 110.8873 15.95770213  2235"
      },
      "geometry": {
        "type": "Point",
        "coordinates": [
          85.96383082502322,
          44.610868889304484
        ]
      }
    },
    {
      "type": "Feature",
      "properties": {
        "norad_id": 66951,
        "name": "STARLINK-35999",
        "group": "last-30-days",
        "lat": 45.6190677185719,
        "lon": 88.26755433030121,
        "alt_km": 285.9889098024323,
        "timestamp": "2025-12-15T04:01:19.182714+00:00",
        "meta_object_name": "STARLINK-35999",
        "meta_object_id": "2025-286AC",
        "meta_epoch": "2025-12-14T06:00:02.999808",
        "meta_mean_motion": 15.95850281,
        "meta_eccentricity": 9.342e-05,
        "meta_inclination": 53.1568,
        "meta_ra_of_asc_node": 42.9466,
        "meta_arg_of_pericenter": 83.2755,
        "meta_mean_anomaly": 109.6382,
        "meta_ephemeris_type": 0,
        "meta_classification_type": "U",
        "meta_norad_cat_id": 66951,
        "meta_element_set_no": 999,
        "meta_rev_at_epoch": 223,
        "meta_bstar": -0.0033524726,
        "meta_mean_motion_dot": -0.01393608,
        "meta_mean_motion_ddot": 0.00058125971,
        "tle_line1": "1 66951U 25286AC  25348.25003472 -.01393608  58126-3 -33525-2 0  9992",
        "tle_line2": "2 66951  53.1568  42.9466 0000934  83.2755 109.6382 15.95850281  2234"
      },
      "geometry": {
        "type": "Point",
        "coordinates": [
          88.26755433030121,
          45.6190677185719
        ]
      }
    }
  ]
}